{"type": "FeatureCollection", "features": [ {"type": "Feature", "properties": {"norad_id": 31010, "name": "FENGYUN 1C DEB", "group": "fengyun-1c-debris", "lat": -70.8560067869669, "lon": 159.03297340620165, "alt_km": 815.2679853021391, "timestamp": "2025-12-04T03:47:54.823169+00:00", "meta": {"OBJECT_NAME": "FENGYUN 1C DEB", "OBJECT_ID": "1999-025BDC", "EPOCH": "2025-12-02T08:21:00.416736", "MEAN_MOTION": 14.25532828, "ECCENTRICITY": 0.01131903, "INCLINATION": 101.7255, "RA_OF_ASC_NODE": 119.8728, "ARG_OF_PERICENTER": 21.7171, "MEAN_ANOMALY": 338.8742, "EPHEMERIS_TYPE": 0, "CLASSIFICATION_TYPE": "U", "NORAD_CAT_ID": 31010, "ELEMENT_SET_NO": 999, "REV_AT_EPOCH": 95481, "BSTAR": 0.0038531931, "MEAN_MOTION_DOT": 9.692e-05, "MEAN_MOTION_DDOT": 0}, "tle": {"line1": "1 31010U 99025BDC 25336.34792149  .00009692  00000+0  38532-2 0  9996", "line2": "2 31010 101.7255 119.8728 0113190  21.7171 338.8742 14.25532828954810"}}, "geometry": {"type": "Point", "coordinates": [159.03297340620165, -70.8560067869669]}}, {"type": "Feature", "properties": {"norad_id": 31012, "name": "FENGYUN 1C DEB", "group": "fengyun-1c-debris", "lat": -33.5701997729349, "lon": -117.93892558026978, "alt_km": 766.7693396174209, "timestamp": "2025-12-04T03:47:54.823179+00:00", "meta": {"OBJECT_NAME": "FENGYUN 1C DEB", "OBJECT_ID": "1999-025BDE", "EPOCH": "2025-12-03T11:58:46.598880", "MEAN_MOTION": 14.27846843, "ECCENTRICITY": 0.0081378, "INCLINATION": 98.9112, "RA_OF_ASC_NODE": 235.4122, "ARG_OF_PERICENTER": 278.5723, "MEAN_ANOMALY": 260.6441, "EPHEMERIS_TYPE": 0, "CLASSIFICATION_TYPE": "U", "NORAD_CAT_ID": 31012, "ELEMENT_SET_NO": 999, "REV_AT_EPOCH": 97615, "BSTAR": 0.000322, "MEAN_MOTION_DOT": 7.78e-06, "MEAN_MOTION_DDOT": 0}, "tle": {"line1": "1 31012U 99025BDE 25337.49915045  .00000778  00000+0  32200-3 0  9990", "line2": "2 31012  98.9112 235.4122 0081378 278.5723 260.6441 14.27846843976157"}}, "geometry": {"type": "Point", "coordinates": [-117.93892558026978, -33.5701997729349]}}, {"type": "Feature", "properties": {"norad_id": 31014, "name": "FENGYUN 1C DEB", "group": "fengyun-1c-debris", "lat": 47.14128933480674, "lon": -55.63310199641345, "alt_km": 957.2651168637549, "timestamp": "2025-12-04T03:47:54.823189+00:00", "meta": {"OBJECT_NAME": "FENGYUN 1C DEB", "OBJECT_ID": "1999-025BDG", "EPOCH": "2025-12-03T05:19:20.083008", "MEAN_MOTION": 13.98479987, "ECCENTRICITY": 0.0087349, "INCLINATION": 98.8662, "RA_OF_ASC_NODE": 313.1456, "ARG_OF_PERICENTER": 219.7614, "MEAN_ANOMALY": 156.0812, "EPHEMERIS_TYPE": 0, "CLASSIFICATION_TYPE": "U", "NORAD_CAT_ID": 31014, "ELEMENT_SET_NO": 999, "REV_AT_EPOCH": 95703, "BSTAR": 0.00038595, "MEAN_MOTION_DOT": 5.28e-06, "MEAN_MOTION_DDOT": 0}, "tle": {"line1": "1 31014U 99025BDG 25337.22176022  .00000528  00000+0  38595-3 0  9993", "line2": "2 31014  98.8662 313.1456 0087349 219.7614 156.0812 13.98479987957036"}}, "geometry": {"type": "Point", "coordinates": [-55.63310199641345, 47.14128933480674]}}, {"type": "Feature", "properties": {"norad_id": 31016, "name": "FENGYUN 1C DEB", "group": "fengyun-1c-debris", "lat": -71.98959331255847, "lon": 147.07598669037176, "alt_km": 740.8797901191847, "timestamp": "2025-12-04T03:47:54.823199+00:00", "meta": {"OBJECT_NAME": "FENGYUN 1C DEB", "OBJECT_ID": "1999-025BDJ", "EPOCH": "2025-12-03T08:13:01.747776", "MEAN_MOTION": 14.30468358, "ECCENTRICITY": 0.0112189, "INCLINATION": 98.4374, "RA_OF_ASC_NODE": 353.4483, "ARG_OF_PERICENTER": 302.1809, "MEAN_ANOMALY": 73.5512, "EPHEMERIS_TYPE": 0, "CLASSIFICATION_TYPE": "U", "NORAD_CAT_ID": 31016, "ELEMENT_SET_NO": 999, "REV_AT_EPOCH": 97336, "BSTAR": 0.00042529, "MEAN_MOTION_DOT": 1.141e-05, "MEAN_MOTION_DDOT": 0}, "tle": {"line1": "1 31016U 99025BDJ 25337.34238134  .00001141  00000+0  42529-3 0  9995", "line2": "2 31016  98.4374 353.4483 0112189 302.1809  73.5512 14.30468358973366"}}, "geometry": {"type": "Point", "coordinates": [147.07598669037176, -71.98959331255847]}}, {"type": "Feature", "properties": {"norad_id": 31017, "name": "FENGYUN 1C DEB", "group": "fengyun-1c-debris", "lat": -2.656025729750965, "lon": 144.19882931195173, "alt_km": 947.348503602494, "timestamp": "2025-12-04T03:47:54.823209+00:00", "meta": {"OBJECT_NAME": "FENGYUN 1C DEB", "OBJECT_ID": "1999-025BDK", "EPOCH": "2025-12-01T22:14:03.658272", "MEAN_MOTION": 14.08793932, "ECCENTRICITY": 0.01137794, "INCLINATION": 98.6789, "RA_OF_ASC_NODE": 322.4558, "ARG_OF_PERICENTER": 20.7136, "MEAN_ANOMALY": 8.7497, "EPHEMERIS_TYPE": 0, "CLASSIFICATION_TYPE": "U", "NORAD_CAT_ID": 31017, "ELEMENT_SET_NO": 999, "REV_AT_EPOCH": 96144, "BSTAR": 0.00045741104, "MEAN_MOTION_DOT": 7.96e-06, "MEAN_MOTION_DDOT": 0}, "tle": {"line1": "1 31017U 99025BDK 25335.92643123  .00000796  00000+0  45741-3 0  9990", "line2": "2 31017  98.6789 322.4558 0113779  20.7136   8.7497 14.08793932961442"}}, "geometry": {"type": "Point", "coordinates": [144.19882931195173, -2.656025729750965]}}, {"type": "Feature", "properties": {"norad_id": 31018, "name": "FENGYUN 1C DEB", "group": "fengyun-1c-debris", "lat": 23.67470095753158, "lon": -111.19883963687961, "alt_km": 792.6356159954257, "timestamp": "2025-12-04T03:47:54.823219+00:00", "meta": {"OBJECT_NAME": "FENGYUN 1C DEB", "OBJECT_ID": "1999-025BDL", "EPOCH": "2025-12-03T05:02:00.500064", "MEAN_MOTION": 14.16810597, "ECCENTRICITY": 0.0059793, "INCLINATION": 99.0258, "RA_OF_ASC_NODE": 63.843, "ARG_OF_PERICENTER": 152.4472, "MEAN_ANOMALY": 207.9893, "EPHEMERIS_TYPE": 0, "CLASSIFICATION_TYPE": "U", "NORAD_CAT_ID": 31018, "ELEMENT_SET_NO": 999, "REV_AT_EPOCH": 95920, "BSTAR": 0.0024522, "MEAN_MOTION_DOT": 4.954e-05, "MEAN_MOTION_DDOT": 0}, "tle": {"line1": "1 31018U 99025BDL 25337.20972801  .00004954  00000+0  24522-2 0  9995", "line2": "2 31018  99.0258  63.8430 0059793 152.4472 207.9893 14.16810597959205"}}, "geometry": {"type": "Point", "coordinates": [-111.19883963687961, 23.67470095753158]}}, {"type": "Feature", "properties": {"norad_id": 31019, "name": "FENGYUN 1C DEB", "group": "fengyun-1c-debris", "lat": 4.97479955905809, "lon": -0.21436137063463143, "alt_km": 2210.694476485306, "timestamp": "2025-12-04T03:47:54.823229+00:00", "meta": {"OBJECT_NAME": "FENGYUN 1C DEB", "OBJECT_ID": "1999-025BDM", "EPOCH": "2025-12-01T11:54:56.953728", "MEAN_MOTION": 11.82937409, "ECCENTRICITY": 0.11191603, "INCLINATION": 98.7033, "RA_OF_ASC_NODE": 177.2685, "ARG_OF_PERICENTER": 305.0923, "MEAN_ANOMALY": 70.4876, "EPHEMERIS_TYPE": 0, "CLASSIFICATION_TYPE": "U", "NORAD_CAT_ID": 31019, "ELEMENT_SET_NO": 999, "REV_AT_EPOCH": 55048, "BSTAR": 0.0036567783, "MEAN_MOTION_DOT": 1.347e-05, "MEAN_MOTION_DDOT": 0}, "tle": {"line1": "1 31019U 99025BDM 25335.49649252  .00001347  00000+0  36568-2 0  9992", "line2": "2 31019  98.7033 177.2685 1119160 305.0923  70.4876 11.82937409550481"}}, "geometry": {"type": "Point", "coordinates": [-0.21436137063463143, 4.97479955905809]}}, {"type": "Feature", "properties": {"norad_id": 31021, "name": "FENGYUN 1C DEB", "group": "fengyun-1c-debris", "lat": -51.277519563668086, "lon": 98.90016826587095, "alt_km": 502.3706618747374, "timestamp": "2025-12-04T03:47:54.823259+00:00", "meta": {"OBJECT_NAME": "FENGYUN 1C DEB", "OBJECT_ID": "1999-025BDP", "EPOCH": "2025-11-23T02:39:04.527648", "MEAN_MOTION": 14.74941254, "ECCENTRICITY": 0.0268991, "INCLINATION": 98.348, "RA_OF_ASC_NODE": 76.9426, "ARG_OF_PERICENTER": 304.648, "MEAN_ANOMALY": 52.9635, "EPHEMERIS_TYPE": 0, "CLASSIFICATION_TYPE": "U", "NORAD_CAT_ID": 31021, "ELEMENT_SET_NO": 999, "REV_AT_EPOCH": 73143, "BSTAR": 0.00041319973, "MEAN_MOTION_DOT": 4.94e-05, "MEAN_MOTION_DDOT": 0}, "tle": {"line1": "1 31021U 99025BDP 25327.11046907  .00004940  00000+0  41320-3 0  9998", "line2": "2 31021  98.3480  76.9426 0268991 304.6480  52.9635 14.74941254731434"}}, "geometry": {"type": "Point", "coordinates": [98.90016826587095, -51.277519563668086]}}, {"type": "Feature", "properties": {"norad_id": 31022, "name": "FENGYUN 1C DEB", "group": "fengyun-1c-debris", "lat": -67.03576400817029, "lon": -115.06892480535753, "alt_km": 1000.5373846787561, "timestamp": "2025-12-04T03:47:54.823270+00:00", "meta": {"OBJECT_NAME": "FENGYUN 1C DEB", "OBJECT_ID": "1999-025BDQ", "EPOCH": "2025-11-29T22:14:32.342208", "MEAN_MOTION": 13.9042789, "ECCENTRICITY": 0.01095005, "INCLINATION": 99.5166, "RA_OF_ASC_NODE": 217.2812, "ARG_OF_PERICENTER": 156.1231, "MEAN_ANOMALY": 204.506, "EPHEMERIS_TYPE": 0, "CLASSIFICATION_TYPE": "U", "NORAD_CAT_ID": 31022, "ELEMENT_SET_NO": 999, "REV_AT_EPOCH": 61830, "BSTAR": 0.00039044901, "MEAN_MOTION_DOT": 4.63e-06, "MEAN_MOTION_DDOT": 0}, "tle": {"line1": "1 31022U 99025BDQ 25333.92676322  .00000463  00000+0  39045-3 0  9992", "line2": "2 31022  99.5166 217.2812 0109500 156.1231 204.5060 13.90427890618301"}}, "geometry": {"type": "Point", "coordinates": [-115.06892480535753, -67.03576400817029]}}, {"type": "Feature", "properties": {"norad_id": 31024, "name": "FENGYUN 1C DEB", "group": "fengyun-1c-debris", "lat": -50.411664648796965, "lon": -97.59905610131366, "alt_km": 879.781676942267, "timestamp": "2025-12-04T03:47:54.823280+00:00", "meta": {"OBJECT_NAME": "FENGYUN 1C DEB", "OBJECT_ID": "1999-025BDS", "EPOCH": "2025-12-01T23:38:59.870688", "MEAN_MOTION": 14.20837686, "ECCENTRICITY": 0.00746531, "INCLINATION": 99.0413, "RA_OF_ASC_NODE": 249.0771, "ARG_OF_PERICENTER": 155.1825, "MEAN_ANOMALY": 205.2971, "EPHEMERIS_TYPE": 0, "CLASSIFICATION_TYPE": "U", "NORAD_CAT_ID": 31024, "ELEMENT_SET_NO": 999, "REV_AT_EPOCH": 96551, "BSTAR": 0.00031138449, "MEAN_MOTION_DOT": 6.46e-06, "MEAN_MOTION_DDOT": 0}, "tle": {"line1": "1 31024U 99025BDS 25335.98541517  .00000646  00000+0  31138-3 0  9997", "line2": "2 31024  99.0413 249.0771 0074653 155.1825 205.2971 14.20837686965517"}}, "geometry": {"type": "Point", "coordinates": [-97.59905610131366, -50.411664648796965]}}]}